{
"type": "FeatureCollection",
"name": "map codinates",
"crs": { "type": "name", "properties": { "name": "urn:ogc:def:crs:OGC:1.3:CRS84" } },
"features": [
{ "type": "Feature", "properties": { "full_id": "n240218764", "osm_id": "240218764", "osm_type": "node", "amenity": "hospital", "mobile": null, "email": null, "website": null, "barrier": null, "access": null, "alt_name": null, "operator": null, "name:ur": null, "addr:city:pa": null, "addr:city:fr": null, "wheelchair": null, "opening_hours": null, "addr:housename": null, "phone": null, "healthcare:speciality": null, "addr:postcode": null, "addr:housenumber": null, "emergency": null, "is_in": null, "name:en": "Ali Medical Centre", "name": "Ali Medical Centre", "healthcare": "hospital", "addr:street": "Kohistan Road", "addr:city:ur": "اسلام آباد", "addr:city:sd": "اسلام آباد", "addr:city:ps": "اسلام آباد", "addr:city:pnb": "اسلام آباد", "addr:city:ks": "اِسلام آبادٖ", "addr:city:en": "Islamabad", "addr:city:ar": "إسلام آباد", "addr:city": "اسلام آباد" }, "geometry": { "type": "Point", "coordinates": [ 73.0417644, 33.7104738 ] } },
{ "type": "Feature", "properties": { "full_id": "n253018400", "osm_id": "253018400", "osm_type": "node", "amenity": "hospital", "mobile": null, "email": null, "website": null, "barrier": null, "access": null, "alt_name": null, "operator": null, "name:ur": null, "addr:city:pa": null, "addr:city:fr": null, "wheelchair": null, "opening_hours": null, "addr:housename": null, "phone": null, "healthcare:speciality": null, "addr:postcode": null, "addr:housenumber": null, "emergency": null, "is_in": "G-6, Islamabad", "name:en": null, "name": "Poly Clinic Hospital", "healthcare": "hospital", "addr:street": null, "addr:city:ur": null, "addr:city:sd": null, "addr:city:ps": null, "addr:city:pnb": null, "addr:city:ks": null, "addr:city:en": null, "addr:city:ar": null, "addr:city": null }, "geometry": { "type": "Point", "coordinates": [ 73.0828053, 33.7211006 ] } },
{ "type": "Feature", "properties": { "full_id": "n297648462", "osm_id": "297648462", "osm_type": "node", "amenity": "hospital", "mobile": null, "email": null, "website": null, "barrier": null, "access": null, "alt_name": null, "operator": null, "name:ur": null, "addr:city:pa": null, "addr:city:fr": null, "wheelchair": null, "opening_hours": null, "addr:housename": null, "phone": null, "healthcare:speciality": null, "addr:postcode": null, "addr:housenumber": null, "emergency": null, "is_in": null, "name:en": null, "name": "Islamabad International َDental Hospital and College", "healthcare": null, "addr:street": "Service Road East G-7", "addr:city:ur": "اسلام آباد", "addr:city:sd": "اسلام آباد", "addr:city:ps": "اسلام آباد", "addr:city:pnb": "اسلام آباد", "addr:city:ks": "اِسلام آبادٖ", "addr:city:en": "Islamabad", "addr:city:ar": "إسلام آباد", "addr:city": "اسلام آباد" }, "geometry": { "type": "Point", "coordinates": [ 73.0794388, 33.7054375 ] } },
{ "type": "Feature", "properties": { "full_id": "n312719028", "osm_id": "312719028", "osm_type": "node", "amenity": "hospital", "mobile": null, "email": null, "website": null, "barrier": null, "access": null, "alt_name": null, "operator": null, "name:ur": null, "addr:city:pa": null, "addr:city:fr": null, "wheelchair": null, "opening_hours": null, "addr:housename": null, "phone": null, "healthcare:speciality": null, "addr:postcode": null, "addr:housenumber": null, "emergency": "yes", "is_in": null, "name:en": null, "name": "PAF Hospital", "healthcare": null, "addr:street": "Rashid Minhas Boulevard", "addr:city:ur": "اسلام آباد", "addr:city:sd": "اسلام آباد", "addr:city:ps": "اسلام آباد", "addr:city:pnb": "اسلام آباد", "addr:city:ks": "اِسلام آبادٖ", "addr:city:en": "Islamabad", "addr:city:ar": "إسلام آباد", "addr:city": "اسلام آباد" }, "geometry": { "type": "Point", "coordinates": [ 73.0170436, 33.7156183 ] } },
{ "type": "Feature", "properties": { "full_id": "n1668718996", "osm_id": "1668718996", "osm_type": "node", "amenity": "hospital", "mobile": null, "email": null, "website": null, "barrier": null, "access": null, "alt_name": null, "operator": null, "name:ur": null, "addr:city:pa": null, "addr:city:fr": null, "wheelchair": null, "opening_hours": null, "addr:housename": null, "phone": null, "healthcare:speciality": null, "addr:postcode": null, "addr:housenumber": null, "emergency": "yes", "is_in": null, "name:en": null, "name": "Shakeela Shabir Hospital", "healthcare": null, "addr:street": null, "addr:city:ur": null, "addr:city:sd": null, "addr:city:ps": null, "addr:city:pnb": null, "addr:city:ks": null, "addr:city:en": null, "addr:city:ar": null, "addr:city": null }, "geometry": { "type": "Point", "coordinates": [ 73.1753981, 33.6454153 ] } },
{ "type": "Feature", "properties": { "full_id": "n1668719004", "osm_id": "1668719004", "osm_type": "node", "amenity": "hospital", "mobile": null, "email": null, "website": null, "barrier": null, "access": null, "alt_name": null, "operator": null, "name:ur": null, "addr:city:pa": null, "addr:city:fr": null, "wheelchair": null, "opening_hours": null, "addr:housename": null, "phone": "+923235380006", "healthcare:speciality": "general", "addr:postcode": "46000", "addr:housenumber": "Madina Town", "emergency": "yes", "is_in": null, "name:en": null, "name": "Begam Jan Hospital", "healthcare": "hospital", "addr:street": "Lehtrar Road Alipur", "addr:city:ur": "اسلام آباد", "addr:city:sd": "اسلام آباد", "addr:city:ps": "اسلام آباد", "addr:city:pnb": "اسلام آباد", "addr:city:ks": "اِسلام آبادٖ", "addr:city:en": "Islamabad", "addr:city:ar": "إسلام آباد", "addr:city": "اسلام آباد" }, "geometry": { "type": "Point", "coordinates": [ 73.1744526, 33.6453694 ] } },
{ "type": "Feature", "properties": { "full_id": "n1707177004", "osm_id": "1707177004", "osm_type": "node", "amenity": "hospital", "mobile": null, "email": null, "website": null, "barrier": null, "access": null, "alt_name": null, "operator": null, "name:ur": null, "addr:city:pa": null, "addr:city:fr": null, "wheelchair": null, "opening_hours": null, "addr:housename": null, "phone": null, "healthcare:speciality": null, "addr:postcode": null, "addr:housenumber": null, "emergency": "yes", "is_in": null, "name:en": null, "name": "International Islamic Medical Centre", "healthcare": null, "addr:street": null, "addr:city:ur": null, "addr:city:sd": null, "addr:city:ps": null, "addr:city:pnb": null, "addr:city:ks": null, "addr:city:en": null, "addr:city:ar": null, "addr:city": null }, "geometry": { "type": "Point", "coordinates": [ 73.0780754, 33.7070214 ] } },
{ "type": "Feature", "properties": { "full_id": "n2147104935", "osm_id": "2147104935", "osm_type": "node", "amenity": "hospital", "mobile": null, "email": null, "website": null, "barrier": null, "access": null, "alt_name": null, "operator": null, "name:ur": null, "addr:city:pa": null, "addr:city:fr": null, "wheelchair": null, "opening_hours": null, "addr:housename": null, "phone": null, "healthcare:speciality": null, "addr:postcode": null, "addr:housenumber": null, "emergency": "yes", "is_in": null, "name:en": null, "name": "Bilquis Memorial Hospital", "healthcare": null, "addr:street": "Local path", "addr:city:ur": "اسلام آباد", "addr:city:sd": "اسلام آباد", "addr:city:ps": "اسلام آباد", "addr:city:pnb": "اسلام آباد", "addr:city:ks": "اِسلام آبادٖ", "addr:city:en": "Islamabad", "addr:city:ar": "إسلام آباد", "addr:city": "اسلام آباد" }, "geometry": { "type": "Point", "coordinates": [ 73.030179, 33.6924791 ] } },
{ "type": "Feature", "properties": { "full_id": "n2604141784", "osm_id": "2604141784", "osm_type": "node", "amenity": "hospital", "mobile": null, "email": null, "website": null, "barrier": null, "access": null, "alt_name": null, "operator": null, "name:ur": null, "addr:city:pa": null, "addr:city:fr": null, "wheelchair": null, "opening_hours": null, "addr:housename": "Farash Town, Islamabad", "phone": null, "healthcare:speciality": null, "addr:postcode": null, "addr:housenumber": null, "emergency": "yes", "is_in": null, "name:en": null, "name": "Al Nafees Hospital & ISRA University", "healthcare": null, "addr:street": null, "addr:city:ur": null, "addr:city:sd": null, "addr:city:ps": null, "addr:city:pnb": null, "addr:city:ks": null, "addr:city:en": null, "addr:city:ar": null, "addr:city": null }, "geometry": { "type": "Point", "coordinates": [ 73.2051385, 33.6550843 ] } },
{ "type": "Feature", "properties": { "full_id": "n2656259979", "osm_id": "2656259979", "osm_type": "node", "amenity": "hospital", "mobile": null, "email": null, "website": null, "barrier": null, "access": null, "alt_name": null, "operator": null, "name:ur": null, "addr:city:pa": null, "addr:city:fr": null, "wheelchair": null, "opening_hours": null, "addr:housename": null, "phone": null, "healthcare:speciality": null, "addr:postcode": null, "addr:housenumber": "H-11/4", "emergency": "yes", "is_in": null, "name:en": null, "name": "NESCOM Hospital", "healthcare": "hospital", "addr:street": "Plot 94", "addr:city:ur": "اسلام آباد", "addr:city:sd": "اسلام آباد", "addr:city:ps": "اسلام آباد", "addr:city:pnb": "اسلام آباد", "addr:city:ks": "اِسلام آبادٖ", "addr:city:en": "Islamabad", "addr:city:ar": "إسلام آباد", "addr:city": "اسلام آباد" }, "geometry": { "type": "Point", "coordinates": [ 73.0174122, 33.6490366 ] } },
{ "type": "Feature", "properties": { "full_id": "n2685020450", "osm_id": "2685020450", "osm_type": "node", "amenity": "hospital", "mobile": null, "email": null, "website": null, "barrier": null, "access": null, "alt_name": null, "operator": null, "name:ur": null, "addr:city:pa": null, "addr:city:fr": null, "wheelchair": null, "opening_hours": null, "addr:housename": null, "phone": null, "healthcare:speciality": null, "addr:postcode": null, "addr:housenumber": null, "emergency": null, "is_in": null, "name:en": null, "name": "Baba Yasin orthopedic", "healthcare": null, "addr:street": null, "addr:city:ur": null, "addr:city:sd": null, "addr:city:ps": null, "addr:city:pnb": null, "addr:city:ks": null, "addr:city:en": null, "addr:city:ar": null, "addr:city": null }, "geometry": { "type": "Point", "coordinates": [ 72.88801, 33.6410642 ] } },
{ "type": "Feature", "properties": { "full_id": "n4533827300", "osm_id": "4533827300", "osm_type": "node", "amenity": "hospital", "mobile": null, "email": null, "website": null, "barrier": null, "access": null, "alt_name": null, "operator": null, "name:ur": null, "addr:city:pa": null, "addr:city:fr": null, "wheelchair": null, "opening_hours": "Mo-Fr 17:00-21:00", "addr:housename": null, "phone": "03005818148", "healthcare:speciality": null, "addr:postcode": null, "addr:housenumber": null, "emergency": null, "is_in": null, "name:en": "Dua Family Hospital", "name": "Dua Family Hospital", "healthcare": null, "addr:street": "1278 A. St 15. O 9 Sector. Police Foundation. Near Tehzeeb Bakers. Islamabad", "addr:city:ur": null, "addr:city:sd": null, "addr:city:ps": null, "addr:city:pnb": null, "addr:city:ks": null, "addr:city:en": null, "addr:city:ar": null, "addr:city": null }, "geometry": { "type": "Point", "coordinates": [ 73.1375352, 33.566509 ] } },
{ "type": "Feature", "properties": { "full_id": "n4581586890", "osm_id": "4581586890", "osm_type": "node", "amenity": "hospital", "mobile": null, "email": null, "website": null, "barrier": null, "access": null, "alt_name": null, "operator": null, "name:ur": null, "addr:city:pa": null, "addr:city:fr": null, "wheelchair": null, "opening_hours": null, "addr:housename": null, "phone": null, "healthcare:speciality": null, "addr:postcode": null, "addr:housenumber": null, "emergency": null, "is_in": null, "name:en": "Ali hospital", "name": "Ali hospital", "healthcare": "hospital", "addr:street": null, "addr:city:ur": null, "addr:city:sd": null, "addr:city:ps": null, "addr:city:pnb": null, "addr:city:ks": null, "addr:city:en": null, "addr:city:ar": null, "addr:city": null }, "geometry": { "type": "Point", "coordinates": [ 73.0580065, 33.6575297 ] } },
{ "type": "Feature", "properties": { "full_id": "n4715980289", "osm_id": "4715980289", "osm_type": "node", "amenity": "hospital", "mobile": null, "email": null, "website": null, "barrier": null, "access": null, "alt_name": null, "operator": null, "name:ur": null, "addr:city:pa": null, "addr:city:fr": null, "wheelchair": "yes", "opening_hours": "24/7", "addr:housename": null, "phone": null, "healthcare:speciality": null, "addr:postcode": null, "addr:housenumber": "H-11/1", "emergency": "yes", "is_in": null, "name:en": null, "name": "PAEC General Hospital", "healthcare": "hospital", "addr:street": null, "addr:city:ur": "اسلام آباد", "addr:city:sd": "اسلام آباد", "addr:city:ps": "اسلام آباد", "addr:city:pnb": "اسلام آباد", "addr:city:ks": "اِسلام آبادٖ", "addr:city:en": "Islamabad", "addr:city:ar": "إسلام آباد", "addr:city": "اسلام آباد" }, "geometry": { "type": "Point", "coordinates": [ 73.0158687, 33.6522249 ] } },
{ "type": "Feature", "properties": { "full_id": "n4880197909", "osm_id": "4880197909", "osm_type": "node", "amenity": "hospital", "mobile": null, "email": null, "website": null, "barrier": null, "access": null, "alt_name": null, "operator": null, "name:ur": null, "addr:city:pa": null, "addr:city:fr": null, "wheelchair": null, "opening_hours": null, "addr:housename": null, "phone": null, "healthcare:speciality": null, "addr:postcode": null, "addr:housenumber": null, "emergency": null, "is_in": null, "name:en": null, "name": "Maryam Hospital and Diagnostic Center", "healthcare": null, "addr:street": "Shabir Sharif Road", "addr:city:ur": "اسلام آباد", "addr:city:sd": "اسلام آباد", "addr:city:ps": "اسلام آباد", "addr:city:pnb": "اسلام آباد", "addr:city:ks": "اِسلام آبادٖ", "addr:city:en": "Islamabad", "addr:city:ar": "إسلام آباد", "addr:city": "اسلام آباد" }, "geometry": { "type": "Point", "coordinates": [ 72.9981512, 33.6677207 ] } },
{ "type": "Feature", "properties": { "full_id": "n4889677808", "osm_id": "4889677808", "osm_type": "node", "amenity": "hospital", "mobile": null, "email": null, "website": null, "barrier": null, "access": null, "alt_name": null, "operator": null, "name:ur": null, "addr:city:pa": null, "addr:city:fr": null, "wheelchair": null, "opening_hours": null, "addr:housename": null, "phone": "03005319353", "healthcare:speciality": null, "addr:postcode": null, "addr:housenumber": null, "emergency": null, "is_in": null, "name:en": null, "name": "Al Ain International Specialist Eye Hospital", "healthcare": null, "addr:street": "Service Road East G-10", "addr:city:ur": "اسلام آباد", "addr:city:sd": "اسلام آباد", "addr:city:ps": "اسلام آباد", "addr:city:pnb": "اسلام آباد", "addr:city:ks": "اِسلام آبادٖ", "addr:city:en": "Islamabad", "addr:city:ar": "إسلام آباد", "addr:city": "اسلام آباد" }, "geometry": { "type": "Point", "coordinates": [ 73.0208068, 33.6863031 ] } },
{ "type": "Feature", "properties": { "full_id": "n4889677811", "osm_id": "4889677811", "osm_type": "node", "amenity": "hospital", "mobile": null, "email": null, "website": null, "barrier": null, "access": null, "alt_name": null, "operator": null, "name:ur": null, "addr:city:pa": null, "addr:city:fr": null, "wheelchair": null, "opening_hours": "Mo-Sa 11:00-14:00", "addr:housename": null, "phone": "0519106270", "healthcare:speciality": null, "addr:postcode": null, "addr:housenumber": null, "emergency": null, "is_in": null, "name:en": null, "name": "K R L General Hospital", "healthcare": null, "addr:street": "Service Road South G9", "addr:city:ur": "اسلام آباد", "addr:city:sd": "اسلام آباد", "addr:city:ps": "اسلام آباد", "addr:city:pnb": "اسلام آباد", "addr:city:ks": "اِسلام آبادٖ", "addr:city:en": "Islamabad", "addr:city:ar": "إسلام آباد", "addr:city": "اسلام آباد" }, "geometry": { "type": "Point", "coordinates": [ 73.0318287, 33.6776437 ] } },
{ "type": "Feature", "properties": { "full_id": "n4899052823", "osm_id": "4899052823", "osm_type": "node", "amenity": "hospital", "mobile": null, "email": null, "website": null, "barrier": null, "access": null, "alt_name": null, "operator": null, "name:ur": null, "addr:city:pa": null, "addr:city:fr": null, "wheelchair": null, "opening_hours": null, "addr:housename": null, "phone": null, "healthcare:speciality": null, "addr:postcode": null, "addr:housenumber": null, "emergency": null, "is_in": null, "name:en": null, "name": "National Institute for Handicapped", "healthcare": null, "addr:street": "Street 9", "addr:city:ur": "اسلام آباد", "addr:city:sd": "اسلام آباد", "addr:city:ps": "اسلام آباد", "addr:city:pnb": "اسلام آباد", "addr:city:ks": "اِسلام آبادٖ", "addr:city:en": "Islamabad", "addr:city:ar": "إسلام آباد", "addr:city": "اسلام آباد" }, "geometry": { "type": "Point", "coordinates": [ 73.0412787, 33.6960409 ] } },
{ "type": "Feature", "properties": { "full_id": "n4899052824", "osm_id": "4899052824", "osm_type": "node", "amenity": "hospital", "mobile": null, "email": null, "website": null, "barrier": null, "access": null, "alt_name": null, "operator": null, "name:ur": null, "addr:city:pa": null, "addr:city:fr": null, "wheelchair": null, "opening_hours": null, "addr:housename": null, "phone": null, "healthcare:speciality": null, "addr:postcode": null, "addr:housenumber": null, "emergency": null, "is_in": null, "name:en": null, "name": "National Institute of Rehabilitation Medicine", "healthcare": null, "addr:street": "Street 9", "addr:city:ur": "اسلام آباد", "addr:city:sd": "اسلام آباد", "addr:city:ps": "اسلام آباد", "addr:city:pnb": "اسلام آباد", "addr:city:ks": "اِسلام آبادٖ", "addr:city:en": "Islamabad", "addr:city:ar": "إسلام آباد", "addr:city": "اسلام آباد" }, "geometry": { "type": "Point", "coordinates": [ 73.0419063, 33.6963265 ] } },
{ "type": "Feature", "properties": { "full_id": "n4943934765", "osm_id": "4943934765", "osm_type": "node", "amenity": "hospital", "mobile": null, "email": null, "website": null, "barrier": null, "access": null, "alt_name": null, "operator": null, "name:ur": null, "addr:city:pa": null, "addr:city:fr": null, "wheelchair": null, "opening_hours": null, "addr:housename": null, "phone": null, "healthcare:speciality": null, "addr:postcode": null, "addr:housenumber": null, "emergency": null, "is_in": null, "name:en": null, "name": "Federal Government Dispensary(FGD)- P Block", "healthcare": null, "addr:street": "Secretariat Road", "addr:city:ur": "اسلام آباد", "addr:city:sd": "اسلام آباد", "addr:city:ps": "اسلام آباد", "addr:city:pnb": "اسلام آباد", "addr:city:ks": "اِسلام آبادٖ", "addr:city:en": "Islamabad", "addr:city:ar": "إسلام آباد", "addr:city": "اسلام آباد" }, "geometry": { "type": "Point", "coordinates": [ 73.0937061, 33.7350867 ] } },
{ "type": "Feature", "properties": { "full_id": "n4954380782", "osm_id": "4954380782", "osm_type": "node", "amenity": "hospital", "mobile": null, "email": null, "website": null, "barrier": null, "access": null, "alt_name": null, "operator": null, "name:ur": null, "addr:city:pa": null, "addr:city:fr": null, "wheelchair": null, "opening_hours": null, "addr:housename": null, "phone": null, "healthcare:speciality": null, "addr:postcode": null, "addr:housenumber": null, "emergency": null, "is_in": null, "name:en": null, "name": "Islamabad Private Hospital", "healthcare": "hospital", "addr:street": "Jinnah Avenue", "addr:city:ur": "اسلام آباد", "addr:city:sd": "اسلام آباد", "addr:city:ps": "اسلام آباد", "addr:city:pnb": "اسلام آباد", "addr:city:ks": "اِسلام آبادٖ", "addr:city:en": "Islamabad", "addr:city:ar": "إسلام آباد", "addr:city": "اسلام آباد" }, "geometry": { "type": "Point", "coordinates": [ 73.0882827, 33.7263874 ] } },
{ "type": "Feature", "properties": { "full_id": "n4954775564", "osm_id": "4954775564", "osm_type": "node", "amenity": "hospital", "mobile": null, "email": null, "website": null, "barrier": null, "access": null, "alt_name": null, "operator": null, "name:ur": null, "addr:city:pa": null, "addr:city:fr": null, "wheelchair": null, "opening_hours": null, "addr:housename": null, "phone": null, "healthcare:speciality": null, "addr:postcode": null, "addr:housenumber": null, "emergency": null, "is_in": null, "name:en": null, "name": "Kulsum International Hospital", "healthcare": "hospital", "addr:street": "Service Road West F-6", "addr:city:ur": "اسلام آباد", "addr:city:sd": "اسلام آباد", "addr:city:ps": "اسلام آباد", "addr:city:pnb": "اسلام آباد", "addr:city:ks": "اِسلام آبادٖ", "addr:city:en": "Islamabad", "addr:city:ar": "إسلام آباد", "addr:city": "اسلام آباد" }, "geometry": { "type": "Point", "coordinates": [ 73.0727516, 33.7180912 ] } },
{ "type": "Feature", "properties": { "full_id": "n4958569728", "osm_id": "4958569728", "osm_type": "node", "amenity": "hospital", "mobile": null, "email": null, "website": null, "barrier": null, "access": null, "alt_name": null, "operator": null, "name:ur": null, "addr:city:pa": null, "addr:city:fr": null, "wheelchair": null, "opening_hours": null, "addr:housename": null, "phone": null, "healthcare:speciality": null, "addr:postcode": null, "addr:housenumber": null, "emergency": null, "is_in": null, "name:en": null, "name": "Life Care international Hospital", "healthcare": null, "addr:street": "Sawan Road", "addr:city:ur": "اسلام آباد", "addr:city:sd": "اسلام آباد", "addr:city:ps": "اسلام آباد", "addr:city:pnb": "اسلام آباد", "addr:city:ks": "اِسلام آبادٖ", "addr:city:en": "Islamabad", "addr:city:ar": "إسلام آباد", "addr:city": "اسلام آباد" }, "geometry": { "type": "Point", "coordinates": [ 73.0153103, 33.676802 ] } },
{ "type": "Feature", "properties": { "full_id": "n4961843228", "osm_id": "4961843228", "osm_type": "node", "amenity": "hospital", "mobile": null, "email": null, "website": null, "barrier": null, "access": null, "alt_name": null, "operator": null, "name:ur": null, "addr:city:pa": null, "addr:city:fr": null, "wheelchair": null, "opening_hours": null, "addr:housename": null, "phone": null, "healthcare:speciality": null, "addr:postcode": null, "addr:housenumber": null, "emergency": null, "is_in": null, "name:en": null, "name": "IHS - Hospital for Children", "healthcare": null, "addr:street": "Street 30", "addr:city:ur": "اسلام آباد", "addr:city:sd": "اسلام آباد", "addr:city:ps": "اسلام آباد", "addr:city:pnb": "اسلام آباد", "addr:city:ks": "اِسلام آبادٖ", "addr:city:en": "Islamabad", "addr:city:ar": "إسلام آباد", "addr:city": "اسلام آباد" }, "geometry": { "type": "Point", "coordinates": [ 73.0056544, 33.6862496 ] } },
{ "type": "Feature", "properties": { "full_id": "n4963936784", "osm_id": "4963936784", "osm_type": "node", "amenity": "hospital", "mobile": null, "email": null, "website": null, "barrier": null, "access": null, "alt_name": null, "operator": null, "name:ur": null, "addr:city:pa": null, "addr:city:fr": null, "wheelchair": null, "opening_hours": null, "addr:housename": null, "phone": null, "healthcare:speciality": null, "addr:postcode": null, "addr:housenumber": null, "emergency": null, "is_in": null, "name:en": null, "name": "OGDCL Medical Centre", "healthcare": null, "addr:street": "Park Road", "addr:city:ur": "اسلام آباد", "addr:city:sd": "اسلام آباد", "addr:city:ps": "اسلام آباد", "addr:city:pnb": "اسلام آباد", "addr:city:ks": "اِسلام آبادٖ", "addr:city:en": "Islamabad", "addr:city:ar": "إسلام آباد", "addr:city": "اسلام آباد" }, "geometry": { "type": "Point", "coordinates": [ 73.0375979, 33.7129575 ] } },
{ "type": "Feature", "properties": { "full_id": "n4963977785", "osm_id": "4963977785", "osm_type": "node", "amenity": "hospital", "mobile": null, "email": null, "website": null, "barrier": null, "access": null, "alt_name": null, "operator": null, "name:ur": null, "addr:city:pa": null, "addr:city:fr": null, "wheelchair": null, "opening_hours": null, "addr:housename": null, "phone": null, "healthcare:speciality": null, "addr:postcode": null, "addr:housenumber": null, "emergency": null, "is_in": null, "name:en": null, "name": "Chohan Eye Hospital", "healthcare": null, "addr:street": "Street 63", "addr:city:ur": "اسلام آباد", "addr:city:sd": "اسلام آباد", "addr:city:ps": "اسلام آباد", "addr:city:pnb": "اسلام آباد", "addr:city:ks": "اِسلام آبادٖ", "addr:city:en": "Islamabad", "addr:city:ar": "إسلام آباد", "addr:city": "اسلام آباد" }, "geometry": { "type": "Point", "coordinates": [ 73.0503778, 33.7090707 ] } },
{ "type": "Feature", "properties": { "full_id": "n4964168702", "osm_id": "4964168702", "osm_type": "node", "amenity": "hospital", "mobile": null, "email": null, "website": null, "barrier": null, "access": null, "alt_name": null, "operator": null, "name:ur": null, "addr:city:pa": null, "addr:city:fr": null, "wheelchair": null, "opening_hours": null, "addr:housename": null, "phone": null, "healthcare:speciality": null, "addr:postcode": null, "addr:housenumber": null, "emergency": null, "is_in": null, "name:en": null, "name": "PNS Hafeez - Naval Hospital", "healthcare": null, "addr:street": "Lalak Jan Road", "addr:city:ur": "اسلام آباد", "addr:city:sd": "اسلام آباد", "addr:city:ps": "اسلام آباد", "addr:city:pnb": "اسلام آباد", "addr:city:ks": "اِسلام آبادٖ", "addr:city:en": "Islamabad", "addr:city:ar": "إسلام آباد", "addr:city": "اسلام آباد" }, "geometry": { "type": "Point", "coordinates": [ 73.0343455, 33.7198918 ] } },
{ "type": "Feature", "properties": { "full_id": "n4964226920", "osm_id": "4964226920", "osm_type": "node", "amenity": "hospital", "mobile": null, "email": null, "website": null, "barrier": null, "access": null, "alt_name": null, "operator": null, "name:ur": null, "addr:city:pa": null, "addr:city:fr": null, "wheelchair": null, "opening_hours": null, "addr:housename": null, "phone": null, "healthcare:speciality": null, "addr:postcode": null, "addr:housenumber": null, "emergency": null, "is_in": null, "name:en": null, "name": "MEDICSi", "healthcare": null, "addr:street": "Jinnah Avenue", "addr:city:ur": "اسلام آباد", "addr:city:sd": "اسلام آباد", "addr:city:ps": "اسلام آباد", "addr:city:pnb": "اسلام آباد", "addr:city:ks": "اِسلام آبادٖ", "addr:city:en": "Islamabad", "addr:city:ar": "إسلام آباد", "addr:city": "اسلام آباد" }, "geometry": { "type": "Point", "coordinates": [ 73.0635591, 33.7144555 ] } },
{ "type": "Feature", "properties": { "full_id": "n4966256881", "osm_id": "4966256881", "osm_type": "node", "amenity": "hospital", "mobile": null, "email": null, "website": null, "barrier": null, "access": null, "alt_name": null, "operator": null, "name:ur": null, "addr:city:pa": null, "addr:city:fr": null, "wheelchair": null, "opening_hours": null, "addr:housename": null, "phone": null, "healthcare:speciality": null, "addr:postcode": null, "addr:housenumber": null, "emergency": null, "is_in": null, "name:en": null, "name": "Beewell Hospital", "healthcare": null, "addr:street": "AKM Fazul Haq Road", "addr:city:ur": "اسلام آباد", "addr:city:sd": "اسلام آباد", "addr:city:ps": "اسلام آباد", "addr:city:pnb": "اسلام آباد", "addr:city:ks": "اِسلام آبادٖ", "addr:city:en": "Islamabad", "addr:city:ar": "إسلام آباد", "addr:city": "اسلام آباد" }, "geometry": { "type": "Point", "coordinates": [ 73.0582647, 33.7100275 ] } },
{ "type": "Feature", "properties": { "full_id": "n5091739723", "osm_id": "5091739723", "osm_type": "node", "amenity": "hospital", "mobile": null, "email": null, "website": null, "barrier": null, "access": null, "alt_name": null, "operator": null, "name:ur": null, "addr:city:pa": null, "addr:city:fr": null, "wheelchair": null, "opening_hours": null, "addr:housename": null, "phone": null, "healthcare:speciality": null, "addr:postcode": null, "addr:housenumber": null, "emergency": null, "is_in": null, "name:en": "Amanat Eye hospital", "name": "Amanat Eye hospital", "healthcare": null, "addr:street": null, "addr:city:ur": null, "addr:city:sd": null, "addr:city:ps": null, "addr:city:pnb": null, "addr:city:ks": null, "addr:city:en": null, "addr:city:ar": null, "addr:city": null }, "geometry": { "type": "Point", "coordinates": [ 73.063908, 33.7221706 ] } },
{ "type": "Feature", "properties": { "full_id": "n5152915622", "osm_id": "5152915622", "osm_type": "node", "amenity": "hospital", "mobile": null, "email": null, "website": null, "barrier": null, "access": null, "alt_name": null, "operator": null, "name:ur": null, "addr:city:pa": null, "addr:city:fr": null, "wheelchair": null, "opening_hours": "Mo-Sa 08:30-19:00; Su 00:00-24:00", "addr:housename": null, "phone": "0512891835", "healthcare:speciality": null, "addr:postcode": null, "addr:housenumber": "Sector G-7/4", "emergency": null, "is_in": null, "name:en": null, "name": "Riphah International Dental Hospital University", "healthcare": null, "addr:street": "Street 40", "addr:city:ur": null, "addr:city:sd": null, "addr:city:ps": null, "addr:city:pnb": null, "addr:city:ks": null, "addr:city:en": null, "addr:city:ar": null, "addr:city": null }, "geometry": { "type": "Point", "coordinates": [ 72.9584212, 33.6524304 ] } },
{ "type": "Feature", "properties": { "full_id": "n5251807396", "osm_id": "5251807396", "osm_type": "node", "amenity": "hospital", "mobile": null, "email": null, "website": null, "barrier": null, "access": null, "alt_name": null, "operator": null, "name:ur": null, "addr:city:pa": "ਰਾਵਲਪਿੰਡੀ", "addr:city:fr": "Rawalpindi", "wheelchair": null, "opening_hours": null, "addr:housename": null, "phone": null, "healthcare:speciality": null, "addr:postcode": null, "addr:housenumber": null, "emergency": null, "is_in": null, "name:en": null, "name": "KKT Orthopedic Spine Center", "healthcare": "hospital", "addr:street": "Service Road", "addr:city:ur": "راولپنڈی", "addr:city:sd": null, "addr:city:ps": null, "addr:city:pnb": "راولپنڈی", "addr:city:ks": null, "addr:city:en": "Rawalpindi", "addr:city:ar": null, "addr:city": "راولپنڈی" }, "geometry": { "type": "Point", "coordinates": [ 72.9726232, 33.6245387 ] } },
{ "type": "Feature", "properties": { "full_id": "n5595279927", "osm_id": "5595279927", "osm_type": "node", "amenity": "hospital", "mobile": null, "email": null, "website": null, "barrier": null, "access": null, "alt_name": null, "operator": null, "name:ur": null, "addr:city:pa": null, "addr:city:fr": null, "wheelchair": null, "opening_hours": null, "addr:housename": null, "phone": null, "healthcare:speciality": null, "addr:postcode": null, "addr:housenumber": null, "emergency": null, "is_in": null, "name:en": null, "name": "Islamabad Diagnostics Center", "healthcare": null, "addr:street": null, "addr:city:ur": null, "addr:city:sd": null, "addr:city:ps": null, "addr:city:pnb": null, "addr:city:ks": null, "addr:city:en": null, "addr:city:ar": null, "addr:city": null }, "geometry": { "type": "Point", "coordinates": [ 72.9971978, 33.6685704 ] } },
{ "type": "Feature", "properties": { "full_id": "n6178526685", "osm_id": "6178526685", "osm_type": "node", "amenity": "hospital", "mobile": null, "email": null, "website": null, "barrier": null, "access": null, "alt_name": null, "operator": null, "name:ur": null, "addr:city:pa": null, "addr:city:fr": null, "wheelchair": null, "opening_hours": null, "addr:housename": null, "phone": null, "healthcare:speciality": null, "addr:postcode": null, "addr:housenumber": null, "emergency": null, "is_in": null, "name:en": null, "name": "Abid Hospital", "healthcare": null, "addr:street": null, "addr:city:ur": null, "addr:city:sd": null, "addr:city:ps": null, "addr:city:pnb": null, "addr:city:ks": null, "addr:city:en": null, "addr:city:ar": null, "addr:city": null }, "geometry": { "type": "Point", "coordinates": [ 73.0755159, 33.7191069 ] } },
{ "type": "Feature", "properties": { "full_id": "n6186225788", "osm_id": "6186225788", "osm_type": "node", "amenity": "hospital", "mobile": null, "email": null, "website": null, "barrier": null, "access": null, "alt_name": null, "operator": null, "name:ur": null, "addr:city:pa": null, "addr:city:fr": null, "wheelchair": null, "opening_hours": null, "addr:housename": null, "phone": null, "healthcare:speciality": null, "addr:postcode": null, "addr:housenumber": null, "emergency": null, "is_in": null, "name:en": null, "name": "Clinics and Diagnostics Hospital", "healthcare": null, "addr:street": null, "addr:city:ur": null, "addr:city:sd": null, "addr:city:ps": null, "addr:city:pnb": null, "addr:city:ks": null, "addr:city:en": null, "addr:city:ar": null, "addr:city": null }, "geometry": { "type": "Point", "coordinates": [ 72.9637335, 33.645756 ] } },
{ "type": "Feature", "properties": { "full_id": "n6199004686", "osm_id": "6199004686", "osm_type": "node", "amenity": "hospital", "mobile": null, "email": null, "website": null, "barrier": null, "access": null, "alt_name": null, "operator": null, "name:ur": null, "addr:city:pa": null, "addr:city:fr": null, "wheelchair": null, "opening_hours": null, "addr:housename": null, "phone": "0514444435", "healthcare:speciality": null, "addr:postcode": null, "addr:housenumber": null, "emergency": null, "is_in": null, "name:en": null, "name": "Ali Hospital", "healthcare": null, "addr:street": null, "addr:city:ur": null, "addr:city:sd": null, "addr:city:ps": null, "addr:city:pnb": null, "addr:city:ks": null, "addr:city:en": null, "addr:city:ar": null, "addr:city": null }, "geometry": { "type": "Point", "coordinates": [ 73.0333924, 33.6794571 ] } },
{ "type": "Feature", "properties": { "full_id": "n6208206588", "osm_id": "6208206588", "osm_type": "node", "amenity": "hospital", "mobile": null, "email": null, "website": null, "barrier": null, "access": null, "alt_name": null, "operator": null, "name:ur": null, "addr:city:pa": null, "addr:city:fr": null, "wheelchair": null, "opening_hours": null, "addr:housename": null, "phone": null, "healthcare:speciality": null, "addr:postcode": null, "addr:housenumber": null, "emergency": null, "is_in": null, "name:en": "Latif Health Centre", "name": "Latif Health Centre", "healthcare": "hospital", "addr:street": null, "addr:city:ur": null, "addr:city:sd": null, "addr:city:ps": null, "addr:city:pnb": null, "addr:city:ks": null, "addr:city:en": null, "addr:city:ar": null, "addr:city": "اسلام آباد" }, "geometry": { "type": "Point", "coordinates": [ 73.0156937, 33.6764623 ] } },
{ "type": "Feature", "properties": { "full_id": "n6219159985", "osm_id": "6219159985", "osm_type": "node", "amenity": "hospital", "mobile": null, "email": null, "website": null, "barrier": null, "access": null, "alt_name": null, "operator": null, "name:ur": null, "addr:city:pa": null, "addr:city:fr": null, "wheelchair": null, "opening_hours": null, "addr:housename": null, "phone": null, "healthcare:speciality": null, "addr:postcode": null, "addr:housenumber": null, "emergency": null, "is_in": null, "name:en": null, "name": "Capital Institute of Health Sciences (CIHS)", "healthcare": null, "addr:street": null, "addr:city:ur": null, "addr:city:sd": null, "addr:city:ps": null, "addr:city:pnb": null, "addr:city:ks": null, "addr:city:en": null, "addr:city:ar": null, "addr:city": null }, "geometry": { "type": "Point", "coordinates": [ 73.0040255, 33.6731737 ] } },
{ "type": "Feature", "properties": { "full_id": "n6265094288", "osm_id": "6265094288", "osm_type": "node", "amenity": "hospital", "mobile": null, "email": null, "website": null, "barrier": null, "access": null, "alt_name": null, "operator": null, "name:ur": "نوری ہسپتال اسلام آباد", "addr:city:pa": null, "addr:city:fr": null, "wheelchair": null, "opening_hours": null, "addr:housename": null, "phone": null, "healthcare:speciality": null, "addr:postcode": null, "addr:housenumber": null, "emergency": null, "is_in": null, "name:en": "Noori Hospital Islamabad", "name": "نوری ہسپتال اسلام آباد", "healthcare": "hospital", "addr:street": "حنا روڈ", "addr:city:ur": null, "addr:city:sd": null, "addr:city:ps": null, "addr:city:pnb": null, "addr:city:ks": null, "addr:city:en": null, "addr:city:ar": null, "addr:city": "اسلام آباد" }, "geometry": { "type": "Point", "coordinates": [ 73.052962, 33.6990693 ] } },
{ "type": "Feature", "properties": { "full_id": "n6432256681", "osm_id": "6432256681", "osm_type": "node", "amenity": "hospital", "mobile": null, "email": null, "website": null, "barrier": null, "access": null, "alt_name": null, "operator": "-", "name:ur": null, "addr:city:pa": null, "addr:city:fr": null, "wheelchair": null, "opening_hours": null, "addr:housename": null, "phone": null, "healthcare:speciality": null, "addr:postcode": null, "addr:housenumber": "-", "emergency": "yes", "is_in": null, "name:en": null, "name": "Clinic and Dignostic Centre", "healthcare": "hospital", "addr:street": "Street 110", "addr:city:ur": null, "addr:city:sd": null, "addr:city:ps": null, "addr:city:pnb": null, "addr:city:ks": null, "addr:city:en": null, "addr:city:ar": null, "addr:city": "islamabad" }, "geometry": { "type": "Point", "coordinates": [ 72.9638728, 33.6456706 ] } },
{ "type": "Feature", "properties": { "full_id": "n6432414579", "osm_id": "6432414579", "osm_type": "node", "amenity": "hospital", "mobile": null, "email": null, "website": null, "barrier": null, "access": null, "alt_name": null, "operator": null, "name:ur": null, "addr:city:pa": null, "addr:city:fr": null, "wheelchair": null, "opening_hours": null, "addr:housename": null, "phone": null, "healthcare:speciality": null, "addr:postcode": null, "addr:housenumber": null, "emergency": null, "is_in": null, "name:en": null, "name": "Anwer Capital Hospital", "healthcare": "hospital", "addr:street": null, "addr:city:ur": null, "addr:city:sd": null, "addr:city:ps": null, "addr:city:pnb": null, "addr:city:ks": null, "addr:city:en": null, "addr:city:ar": null, "addr:city": null }, "geometry": { "type": "Point", "coordinates": [ 72.9641192, 33.6452961 ] } },
{ "type": "Feature", "properties": { "full_id": "n6521223343", "osm_id": "6521223343", "osm_type": "node", "amenity": "hospital", "mobile": null, "email": null, "website": null, "barrier": null, "access": null, "alt_name": "Surgical Centre", "operator": null, "name:ur": null, "addr:city:pa": null, "addr:city:fr": null, "wheelchair": null, "opening_hours": null, "addr:housename": null, "phone": null, "healthcare:speciality": "general;gynaecology;orthopaedics;dermatology;surgery;clinic", "addr:postcode": "44220", "addr:housenumber": "Block 1", "emergency": "no", "is_in": null, "name:en": null, "name": "Surgical Centre Islamabad", "healthcare": "hospital", "addr:street": "Street 22", "addr:city:ur": "اسلام آباد", "addr:city:sd": "اسلام آباد", "addr:city:ps": "اسلام آباد", "addr:city:pnb": "اسلام آباد", "addr:city:ks": "اِسلام آبادٖ", "addr:city:en": "Islamabad", "addr:city:ar": "إسلام آباد", "addr:city": "اسلام آباد" }, "geometry": { "type": "Point", "coordinates": [ 73.0333152, 33.7149444 ] } },
{ "type": "Feature", "properties": { "full_id": "n6658591445", "osm_id": "6658591445", "osm_type": "node", "amenity": "hospital", "mobile": null, "email": null, "website": null, "barrier": null, "access": null, "alt_name": null, "operator": null, "name:ur": null, "addr:city:pa": null, "addr:city:fr": null, "wheelchair": null, "opening_hours": null, "addr:housename": null, "phone": null, "healthcare:speciality": null, "addr:postcode": null, "addr:housenumber": null, "emergency": null, "is_in": null, "name:en": null, "name": "Zayneb Hospital", "healthcare": "hospital", "addr:street": null, "addr:city:ur": null, "addr:city:sd": null, "addr:city:ps": null, "addr:city:pnb": null, "addr:city:ks": null, "addr:city:en": null, "addr:city:ar": null, "addr:city": null }, "geometry": { "type": "Point", "coordinates": [ 73.1553234, 33.5418933 ] } },
{ "type": "Feature", "properties": { "full_id": "n6658591446", "osm_id": "6658591446", "osm_type": "node", "amenity": "hospital", "mobile": null, "email": null, "website": null, "barrier": null, "access": null, "alt_name": null, "operator": null, "name:ur": null, "addr:city:pa": null, "addr:city:fr": null, "wheelchair": null, "opening_hours": null, "addr:housename": null, "phone": null, "healthcare:speciality": null, "addr:postcode": null, "addr:housenumber": null, "emergency": null, "is_in": null, "name:en": null, "name": "Aziz Hospital", "healthcare": "hospital", "addr:street": null, "addr:city:ur": null, "addr:city:sd": null, "addr:city:ps": null, "addr:city:pnb": null, "addr:city:ks": null, "addr:city:en": null, "addr:city:ar": null, "addr:city": null }, "geometry": { "type": "Point", "coordinates": [ 73.1495837, 33.5414502 ] } },
{ "type": "Feature", "properties": { "full_id": "n7417878942", "osm_id": "7417878942", "osm_type": "node", "amenity": "hospital", "mobile": null, "email": null, "website": null, "barrier": null, "access": null, "alt_name": null, "operator": null, "name:ur": null, "addr:city:pa": null, "addr:city:fr": null, "wheelchair": null, "opening_hours": null, "addr:housename": null, "phone": "+92512621044", "healthcare:speciality": "general;surgery;gynaecology;ophthalmology;paediatrics", "addr:postcode": "46000", "addr:housenumber": "Nai abadi", "emergency": "yes", "is_in": null, "name:en": null, "name": "HBS General Hospital", "healthcare": "hospital", "addr:street": "Alipur, Lethrar Road", "addr:city:ur": "اسلام آباد", "addr:city:sd": "اسلام آباد", "addr:city:ps": "اسلام آباد", "addr:city:pnb": "اسلام آباد", "addr:city:ks": "اِسلام آبادٖ", "addr:city:en": "Islamabad", "addr:city:ar": "إسلام آباد", "addr:city": "اسلام آباد" }, "geometry": { "type": "Point", "coordinates": [ 73.1726511, 33.6448002 ] } },
{ "type": "Feature", "properties": { "full_id": "n7914259961", "osm_id": "7914259961", "osm_type": "node", "amenity": null, "mobile": null, "email": null, "website": null, "barrier": "gate", "access": "no", "alt_name": null, "operator": null, "name:ur": null, "addr:city:pa": null, "addr:city:fr": null, "wheelchair": null, "opening_hours": null, "addr:housename": null, "phone": null, "healthcare:speciality": null, "addr:postcode": null, "addr:housenumber": null, "emergency": null, "is_in": null, "name:en": null, "name": null, "healthcare": null, "addr:street": null, "addr:city:ur": null, "addr:city:sd": null, "addr:city:ps": null, "addr:city:pnb": null, "addr:city:ks": null, "addr:city:en": null, "addr:city:ar": null, "addr:city": null }, "geometry": { "type": "Point", "coordinates": [ 73.051087, 33.705229 ] } },
{ "type": "Feature", "properties": { "full_id": "n7914259962", "osm_id": "7914259962", "osm_type": "node", "amenity": null, "mobile": null, "email": null, "website": null, "barrier": "gate", "access": "no", "alt_name": null, "operator": null, "name:ur": null, "addr:city:pa": null, "addr:city:fr": null, "wheelchair": null, "opening_hours": null, "addr:housename": null, "phone": null, "healthcare:speciality": null, "addr:postcode": null, "addr:housenumber": null, "emergency": null, "is_in": null, "name:en": null, "name": null, "healthcare": null, "addr:street": null, "addr:city:ur": null, "addr:city:sd": null, "addr:city:ps": null, "addr:city:pnb": null, "addr:city:ks": null, "addr:city:en": null, "addr:city:ar": null, "addr:city": null }, "geometry": { "type": "Point", "coordinates": [ 73.0511913, 33.7052846 ] } },
{ "type": "Feature", "properties": { "full_id": "n8841662156", "osm_id": "8841662156", "osm_type": "node", "amenity": "hospital", "mobile": null, "email": null, "website": null, "barrier": null, "access": null, "alt_name": null, "operator": null, "name:ur": null, "addr:city:pa": null, "addr:city:fr": null, "wheelchair": null, "opening_hours": null, "addr:housename": null, "phone": null, "healthcare:speciality": null, "addr:postcode": null, "addr:housenumber": null, "emergency": null, "is_in": null, "name:en": null, "name": "Max Health Hospital", "healthcare": null, "addr:street": null, "addr:city:ur": null, "addr:city:sd": null, "addr:city:ps": null, "addr:city:pnb": null, "addr:city:ks": null, "addr:city:en": null, "addr:city:ar": null, "addr:city": null }, "geometry": { "type": "Point", "coordinates": [ 73.0491988, 33.6976835 ] } },
{ "type": "Feature", "properties": { "full_id": "n9501618144", "osm_id": "9501618144", "osm_type": "node", "amenity": "hospital", "mobile": null, "email": null, "website": "https://shifa-health-care-hospital.business.site/", "barrier": null, "access": null, "alt_name": null, "operator": null, "name:ur": "شفاء ہیلتھ کئیر ہسپتال", "addr:city:pa": null, "addr:city:fr": null, "wheelchair": null, "opening_hours": "08:00-21:30", "addr:housename": null, "phone": "+923023255553", "healthcare:speciality": null, "addr:postcode": null, "addr:housenumber": null, "emergency": null, "is_in": null, "name:en": null, "name": "شفاء ہیلتھ کئیر ہسپتال", "healthcare": "hospital", "addr:street": null, "addr:city:ur": null, "addr:city:sd": null, "addr:city:ps": null, "addr:city:pnb": null, "addr:city:ks": null, "addr:city:en": null, "addr:city:ar": null, "addr:city": null }, "geometry": { "type": "Point", "coordinates": [ 72.944307, 33.6917797 ] } },
{ "type": "Feature", "properties": { "full_id": "n11068308487", "osm_id": "11068308487", "osm_type": "node", "amenity": "hospital", "mobile": null, "email": null, "website": null, "barrier": null, "access": null, "alt_name": null, "operator": null, "name:ur": null, "addr:city:pa": null, "addr:city:fr": null, "wheelchair": null, "opening_hours": null, "addr:housename": null, "phone": null, "healthcare:speciality": "internal", "addr:postcode": null, "addr:housenumber": null, "emergency": "yes", "is_in": null, "name:en": null, "name": "Testing Hospital Ismail", "healthcare": "hospital", "addr:street": null, "addr:city:ur": null, "addr:city:sd": null, "addr:city:ps": null, "addr:city:pnb": null, "addr:city:ks": null, "addr:city:en": null, "addr:city:ar": null, "addr:city": null }, "geometry": { "type": "Point", "coordinates": [ 73.056917, 33.7040908 ] } },
{ "type": "Feature", "properties": { "full_id": "n11185339209", "osm_id": "11185339209", "osm_type": "node", "amenity": "hospital", "mobile": null, "email": null, "website": null, "barrier": null, "access": null, "alt_name": null, "operator": null, "name:ur": null, "addr:city:pa": null, "addr:city:fr": null, "wheelchair": null, "opening_hours": null, "addr:housename": null, "phone": null, "healthcare:speciality": null, "addr:postcode": null, "addr:housenumber": null, "emergency": null, "is_in": null, "name:en": null, "name": "Islamabad Specialists Clinic F-8 Markaz", "healthcare": null, "addr:street": "13-A Kohistan Road, Kiran Plaza, F-8 Markaz, Islamabad", "addr:city:ur": null, "addr:city:sd": null, "addr:city:ps": null, "addr:city:pnb": null, "addr:city:ks": null, "addr:city:en": null, "addr:city:ar": null, "addr:city": null }, "geometry": { "type": "Point", "coordinates": [ 73.0417786, 33.711174 ] } },
{ "type": "Feature", "properties": { "full_id": "n11217189672", "osm_id": "11217189672", "osm_type": "node", "amenity": "hospital", "mobile": null, "email": null, "website": null, "barrier": null, "access": null, "alt_name": null, "operator": null, "name:ur": null, "addr:city:pa": null, "addr:city:fr": null, "wheelchair": null, "opening_hours": null, "addr:housename": null, "phone": null, "healthcare:speciality": null, "addr:postcode": null, "addr:housenumber": null, "emergency": null, "is_in": null, "name:en": null, "name": "Advanced International Hospital G-8 Markaz", "healthcare": null, "addr:street": "G-8 Markaz", "addr:city:ur": null, "addr:city:sd": null, "addr:city:ps": null, "addr:city:pnb": null, "addr:city:ks": null, "addr:city:en": null, "addr:city:ar": null, "addr:city": null }, "geometry": { "type": "Point", "coordinates": [ 73.0502887, 33.6963846 ] } },
{ "type": "Feature", "properties": { "full_id": "n11268713199", "osm_id": "11268713199", "osm_type": "node", "amenity": "hospital", "mobile": null, "email": null, "website": null, "barrier": null, "access": null, "alt_name": null, "operator": null, "name:ur": null, "addr:city:pa": null, "addr:city:fr": null, "wheelchair": null, "opening_hours": null, "addr:housename": null, "phone": null, "healthcare:speciality": null, "addr:postcode": null, "addr:housenumber": null, "emergency": null, "is_in": null, "name:en": null, "name": "PAF Hospital, Unit 2 Parking", "healthcare": null, "addr:street": "Main Margalla Road, E-9/1, Islamabad", "addr:city:ur": null, "addr:city:sd": null, "addr:city:ps": null, "addr:city:pnb": null, "addr:city:ks": null, "addr:city:en": null, "addr:city:ar": null, "addr:city": null }, "geometry": { "type": "Point", "coordinates": [ 73.0148593, 33.7075986 ] } },
{ "type": "Feature", "properties": { "full_id": "n12143774524", "osm_id": "12143774524", "osm_type": "node", "amenity": "hospital", "mobile": null, "email": null, "website": null, "barrier": null, "access": null, "alt_name": null, "operator": null, "name:ur": null, "addr:city:pa": null, "addr:city:fr": null, "wheelchair": null, "opening_hours": null, "addr:housename": null, "phone": null, "healthcare:speciality": "diabetology", "addr:postcode": null, "addr:housenumber": "Ground Floor", "emergency": null, "is_in": null, "name:en": null, "name": "Alam Hospital", "healthcare": "hospital", "addr:street": "Satti Arcade Lehtrar Road Khanna Pul", "addr:city:ur": null, "addr:city:sd": null, "addr:city:ps": null, "addr:city:pnb": null, "addr:city:ks": null, "addr:city:en": null, "addr:city:ar": null, "addr:city": "Islamabad" }, "geometry": { "type": "Point", "coordinates": [ 73.1189166, 33.6300435 ] } },
{ "type": "Feature", "properties": { "full_id": "n12215025180", "osm_id": "12215025180", "osm_type": "node", "amenity": "hospital", "mobile": "+923421945217", "email": "rahimhyder795@gmail.com", "website": null, "barrier": null, "access": null, "alt_name": null, "operator": null, "name:ur": null, "addr:city:pa": null, "addr:city:fr": null, "wheelchair": null, "opening_hours": null, "addr:housename": null, "phone": null, "healthcare:speciality": "dentist;pharmacy", "addr:postcode": null, "addr:housenumber": "new gujjar khan medical store", "emergency": "yes", "is_in": null, "name:en": null, "name": "new gujjar khan medical store", "healthcare": "hospital", "addr:street": "Lehtrar Road", "addr:city:ur": null, "addr:city:sd": null, "addr:city:ps": null, "addr:city:pnb": null, "addr:city:ks": null, "addr:city:en": null, "addr:city:ar": null, "addr:city": "islamabad" }, "geometry": { "type": "Point", "coordinates": [ 73.1954238, 33.6520132 ] } },
{ "type": "Feature", "properties": { "full_id": "n12229985624", "osm_id": "12229985624", "osm_type": "node", "amenity": "hospital", "mobile": null, "email": null, "website": null, "barrier": null, "access": null, "alt_name": null, "operator": null, "name:ur": null, "addr:city:pa": null, "addr:city:fr": null, "wheelchair": null, "opening_hours": null, "addr:housename": null, "phone": null, "healthcare:speciality": null, "addr:postcode": null, "addr:housenumber": null, "emergency": null, "is_in": null, "name:en": null, "name": "IIUI MEDICAL CENTRE", "healthcare": "hospital", "addr:street": null, "addr:city:ur": null, "addr:city:sd": null, "addr:city:ps": null, "addr:city:pnb": null, "addr:city:ks": null, "addr:city:en": null, "addr:city:ar": null, "addr:city": null }, "geometry": { "type": "Point", "coordinates": [ 73.021572, 33.6621889 ] } },
{ "type": "Feature", "properties": { "full_id": "n12384969502", "osm_id": "12384969502", "osm_type": "node", "amenity": "hospital", "mobile": null, "email": null, "website": null, "barrier": null, "access": null, "alt_name": null, "operator": null, "name:ur": null, "addr:city:pa": null, "addr:city:fr": null, "wheelchair": null, "opening_hours": null, "addr:housename": null, "phone": null, "healthcare:speciality": null, "addr:postcode": null, "addr:housenumber": null, "emergency": null, "is_in": null, "name:en": null, "name": "Ghulam mehdi memorial hospital GMMH", "healthcare": null, "addr:street": null, "addr:city:ur": null, "addr:city:sd": null, "addr:city:ps": null, "addr:city:pnb": null, "addr:city:ks": null, "addr:city:en": null, "addr:city:ar": null, "addr:city": null }, "geometry": { "type": "Point", "coordinates": [ 72.8610327, 33.6643883 ] } },
{ "type": "Feature", "properties": { "full_id": "n12732941793", "osm_id": "12732941793", "osm_type": "node", "amenity": null, "mobile": null, "email": null, "website": null, "barrier": "gate", "access": "no", "alt_name": null, "operator": null, "name:ur": null, "addr:city:pa": null, "addr:city:fr": null, "wheelchair": null, "opening_hours": null, "addr:housename": null, "phone": null, "healthcare:speciality": null, "addr:postcode": null, "addr:housenumber": null, "emergency": null, "is_in": null, "name:en": null, "name": null, "healthcare": null, "addr:street": null, "addr:city:ur": null, "addr:city:sd": null, "addr:city:ps": null, "addr:city:pnb": null, "addr:city:ks": null, "addr:city:en": null, "addr:city:ar": null, "addr:city": null }, "geometry": { "type": "Point", "coordinates": [ 73.0480994, 33.7002854 ] } },
{ "type": "Feature", "properties": { "full_id": "n12733638872", "osm_id": "12733638872", "osm_type": "node", "amenity": null, "mobile": null, "email": null, "website": null, "barrier": "gate", "access": null, "alt_name": null, "operator": null, "name:ur": null, "addr:city:pa": null, "addr:city:fr": null, "wheelchair": null, "opening_hours": null, "addr:housename": null, "phone": null, "healthcare:speciality": null, "addr:postcode": null, "addr:housenumber": null, "emergency": null, "is_in": null, "name:en": null, "name": null, "healthcare": null, "addr:street": null, "addr:city:ur": null, "addr:city:sd": null, "addr:city:ps": null, "addr:city:pnb": null, "addr:city:ks": null, "addr:city:en": null, "addr:city:ar": null, "addr:city": null }, "geometry": { "type": "Point", "coordinates": [ 73.0495188, 33.7044088 ] } },
{ "type": "Feature", "properties": { "full_id": "n12754325901", "osm_id": "12754325901", "osm_type": "node", "amenity": "hospital", "mobile": null, "email": null, "website": "https://elaajinternationalhospital.com/", "barrier": null, "access": null, "alt_name": null, "operator": null, "name:ur": null, "addr:city:pa": null, "addr:city:fr": null, "wheelchair": null, "opening_hours": "24/7", "addr:housename": null, "phone": "(051) 2619276", "healthcare:speciality": null, "addr:postcode": null, "addr:housenumber": null, "emergency": null, "is_in": null, "name:en": null, "name": "Elaaj International Hospital Islamabad", "healthcare": null, "addr:street": "Service Road East", "addr:city:ur": null, "addr:city:sd": null, "addr:city:ps": null, "addr:city:pnb": null, "addr:city:ks": null, "addr:city:en": null, "addr:city:ar": null, "addr:city": null }, "geometry": { "type": "Point", "coordinates": [ 73.1149925, 33.630284 ] } },
{ "type": "Feature", "properties": { "full_id": "n12754336401", "osm_id": "12754336401", "osm_type": "node", "amenity": "hospital", "mobile": null, "email": null, "website": null, "barrier": null, "access": null, "alt_name": null, "operator": null, "name:ur": null, "addr:city:pa": null, "addr:city:fr": null, "wheelchair": null, "opening_hours": "24/7", "addr:housename": null, "phone": "(051) 2619271", "healthcare:speciality": null, "addr:postcode": null, "addr:housenumber": null, "emergency": null, "is_in": null, "name:en": null, "name": "Health International Hospital", "healthcare": null, "addr:street": "Service Road East", "addr:city:ur": null, "addr:city:sd": null, "addr:city:ps": null, "addr:city:pnb": null, "addr:city:ks": null, "addr:city:en": null, "addr:city:ar": null, "addr:city": null }, "geometry": { "type": "Point", "coordinates": [ 73.1130521, 33.6327853 ] } },
{ "type": "Feature", "properties": { "full_id": "n12844548570", "osm_id": "12844548570", "osm_type": "node", "amenity": "hospital", "mobile": null, "email": null, "website": null, "barrier": null, "access": null, "alt_name": null, "operator": null, "name:ur": null, "addr:city:pa": null, "addr:city:fr": null, "wheelchair": null, "opening_hours": null, "addr:housename": null, "phone": null, "healthcare:speciality": null, "addr:postcode": null, "addr:housenumber": null, "emergency": null, "is_in": null, "name:en": null, "name": "noor generar hospital", "healthcare": "hospital", "addr:street": null, "addr:city:ur": null, "addr:city:sd": null, "addr:city:ps": null, "addr:city:pnb": null, "addr:city:ks": null, "addr:city:en": null, "addr:city:ar": null, "addr:city": null }, "geometry": { "type": "Point", "coordinates": [ 73.0004123, 33.6689967 ] } }
]
}
